OBJECT_NAME,OBJECT_ID,EPOCH,MEAN_MOTION,ECCENTRICITY,INCLINATION,RA_OF_ASC_NODE,ARG_OF_PERICENTER,MEAN_ANOMALY,EPHEMERIS_TYPE,CLASSIFICATION_TYPE,NORAD_CAT_ID,ELEMENT_SET_NO,REV_AT_EPOCH,BSTAR,MEAN_MOTION_DOT,MEAN_MOTION_DDOT
M2 PATHFINDER,2020-037E,2026-07-15T12:11:44.133216,15.04791762,.0012891,97.8142,28.0603,61.5732,298.6791,0,U,45727,999,32975,.48205888E-4,.617E-5,0
NETSAT-4,2020-068U,2026-07-15T12:07:05.014560,15.44764492,.00048182,97.8600,207.0407,192.2589,167.8542,0,U,46504,999,32014,.25515E-3,.11843E-3,0
NETSAT-3,2020-068V,2026-07-14T22:46:43.328640,15.43602426,.00037661,97.8649,204.6225,212.3316,147.7700,0,U,46505,999,31996,.23831624E-3,.10624E-3,0
NETSAT-1,2020-068W,2026-07-15T10:16:08.707584,15.35248484,.00024644,97.8750,199.1310,260.7560,99.3403,0,U,46506,999,31963,.19990909E-3,.6752E-4,0
NETSAT-2,2020-068X,2026-07-15T10:31:39.037728,15.47169932,.000217,97.8610,206.9725,207.0405,153.0731,0,U,46507,999,32010,.28095025E-3,.14174E-3,0
GREENCUBE (IO-117),2022-080E,2026-07-15T04:46:20.871552,6.42583355,.00090693,70.1411,288.5050,283.3508,76.6141,0,U,53109,999,9386,0,-.3E-7,0
SITRO-AIS 5 (KATYS),2023-091L,2026-07-15T14:08:24.568800,15.30070648,.00106223,97.5046,260.7687,11.1358,349.0115,0,U,57176,999,16868,.24125316E-3,.6954E-4,0
SITRO-AIS 6 (CHIRKIN),2023-091AC,2026-07-15T13:39:28.142208,15.26442570,.00111183,97.5053,259.7145,15.2660,344.8911,0,U,57192,999,16861,.22217807E-3,.5724E-4,0
SITRO-AIS 8 (ANOKHIN),2023-091AD,2026-07-15T14:53:53.683872,15.32865349,.00094825,97.5043,262.5076,6.6044,353.5321,0,U,57193,999,16880,.26470734E-3,.8333E-4,0
SITRO-AIS 7 (FARTUSHNIY),2023-091AE,2026-07-15T13:52:32.121984,15.26115953,.00111035,97.5049,259.5336,16.5322,343.6276,0,U,57194,999,16860,.21240731E-3,.5414E-4,0
SITRO-AIS 10 (BURDAEV),2023-091AK,2026-07-15T14:16:46.519104,15.39638022,.00048231,97.5069,267.8356,339.6152,20.4900,0,U,57199,999,16913,.31132003E-3,.12197E-3,0
SITRO-AIS 9 (SHCHUKIN),2023-091AM,2026-07-15T15:08:08.442528,15.39123184,.00050994,97.5067,267.5794,339.8733,20.2310,0,U,57201,999,16912,.31124156E-3,.1199E-3,0
SITRO-AIS 12 (SMIRENNIY),2023-091AQ,2026-07-15T14:46:49.858176,15.39419411,.00046705,97.5081,268.0493,332.3030,27.7966,0,U,57204,999,16914,.31379733E-3,.12207E-3,0
SITRO-AIS 11 (SHEFFER),2023-091AU,2026-07-15T14:54:36.222912,15.39862779,.00045532,97.5080,268.3196,331.3953,28.7042,0,U,57208,999,16916,.31688826E-3,.12509E-3,0
SITRO-AIS 25,2024-039R,2026-07-15T13:57:42.984000,14.93644071,.01428092,95.3892,254.6046,228.1507,130.7459,0,U,59066,999,12896,.14791146E-3,.1874E-4,0
SITRO-AIS 26,2024-039S,2026-07-15T14:05:19.664160,14.93435899,.01431421,95.3892,254.4999,228.7542,130.1280,0,U,59067,999,12895,.13775577E-3,.1734E-4,0
SITRO-AIS 27,2024-039T,2026-07-15T14:47:24.361152,14.93860058,.0142211,95.3898,254.8050,227.1648,131.7558,0,U,59068,999,12898,.1073269E-3,.1355E-4,0
SITRO-AIS 28,2024-039U,2026-07-15T14:14:00.770208,14.93894422,.01421102,95.3896,254.8379,227.0925,131.8303,0,U,59071,999,12898,.13275676E-3,.1687E-4,0
GRBBETA,2024-128C,2026-07-15T07:00:46.612224,15.06808761,.00370246,61.9898,117.6465,140.6791,219.7001,0,U,60237,999,11050,.12540191E-3,.1683E-4,0
OOV-CUBE (TUBSAT-30),2024-128F,2026-07-15T06:24:32.897952,15.02873933,.0041102,61.9937,127.6518,140.0470,220.3658,0,U,60240,999,11033,.8674369E-4,.973E-5,0
ROBUSTA-3A (MEDITERRANEE),2024-128J,2026-07-15T04:16:59.975616,15.11986976,.00381242,61.9866,109.2343,133.8167,226.6092,0,U,60243,999,11065,.24092997E-3,.3998E-4,0
LASARSAT,2024-247Q,2026-07-14T22:22:35.051232,15.48033197,.0007354,44.9739,106.1046,164.5391,195.5725,0,U,62391,999,8761,.40881166E-3,.21592E-3,0
CROCUBE,2024-247T,2026-07-15T02:05:50.091648,15.50189566,.0007544,44.9722,102.0802,171.5148,188.5872,0,U,62394,999,8767,.45369582E-3,.25934E-3,0
FORESAIL-1 PRIME,2025-276DS,2026-07-15T04:39:41.435712,15.18938200,.00028967,97.4193,268.9548,44.4716,315.6751,0,U,66778,999,3465,.11894212E-3,.2417E-4,0
KNACKSAT-2,1998-067XZ,2026-07-15T06:12:31.865760,15.62408935,.00079923,51.6274,153.0107,328.5700,31.4815,0,U,67683,999,2466,.38021354E-3,.3405E-3,0
